OBJECT_NAME,OBJECT_ID,EPOCH,MEAN_MOTION,ECCENTRICITY,INCLINATION,RA_OF_ASC_NODE,ARG_OF_PERICENTER,MEAN_ANOMALY,EPHEMERIS_TYPE,CLASSIFICATION_TYPE,NORAD_CAT_ID,ELEMENT_SET_NO,REV_AT_EPOCH,BSTAR,MEAN_MOTION_DOT,MEAN_MOTION_DDOT
SPAINSAT NG I,2025-021A,2026-07-14T15:06:38.933856,1.00269980,.00001853,0.0173,38.7284,233.4175,275.9874,0,U,62852,999,426,0,.143E-5,0
QZS-6 (MICHIBIKI-6),2025-023A,2026-07-14T14:30:59.037408,1.00267117,.00018036,0.0104,356.5330,135.8076,108.3029,0,U,62876,999,522,0,-.239E-5,0
ZHONGXING-10R,2025-036A,2026-07-14T14:31:43.306176,1.00272479,.00041772,0.0176,216.0861,291.5304,113.2910,0,U,63075,999,523,0,-.36E-5,0
TJS-15,2025-045A,2026-07-13T17:56:30.408288,1.00269569,.0003351,0.3063,85.6357,295.0634,274.4075,0,U,63157,999,502,0,-.269E-5,0
TIANLIAN 2-04,2025-062A,2026-07-14T15:30:24.750720,1.00270850,.00315954,4.3058,274.0451,9.3715,321.7066,0,U,63361,999,487,0,-.139E-5,0
TJS-16,2025-064A,2026-07-13T18:20:48.606144,1.00270806,.0002489,1.1643,81.2920,290.3397,355.8257,0,U,63397,999,465,0,-.111E-5,0
TJS-17,2025-073A,2026-07-13T18:17:39.505056,1.00270523,.0000992,1.1304,82.4646,303.0552,345.0327,0,U,63524,999,455,0,-.76E-6,0
TIANLIAN 2-05,2025-084A,2026-07-14T13:30:36.326016,1.00271100,.00025604,4.3836,279.5224,153.9894,81.9210,0,U,63662,999,465,0,.12E-5,0
TJS-19,2025-097A,2026-07-13T17:33:28.505088,1.00266719,.0003966,3.2430,317.8726,245.4291,132.8569,0,U,63924,999,441,0,-.278E-5,0
CHINASAT 3B,2025-106A,2026-07-14T14:12:46.658016,1.00272367,.00039898,0.0249,140.4554,4.7562,167.7480,0,U,64062,999,433,0,-.53E-6,0
SXM-10,2025-122A,2026-07-13T14:37:25.836384,1.00271903,.00018282,0.0157,36.2449,322.9748,35.4661,0,U,64290,999,394,0,-.21E-6,0
COSMOS 2589,2025-131A,2026-07-13T17:21:07.191360,1.00273922,.0000927,0.0273,122.3287,83.5150,84.0384,0,U,64467,999,382,0,-.296E-5,0
CHINASAT 9C,2025-132A,2026-07-14T15:39:35.758080,1.00267113,.00029399,0.0171,71.4534,43.6478,144.5175,0,U,64470,999,442,0,0,0
MTG-S1,2025-143A,2026-07-14T13:24:51.876864,1.00273373,.00034744,0.5848,344.9295,261.8054,246.4891,0,U,64723,999,369,0,-.15E-6,0
DROR 1,2025-148A,2026-07-14T13:23:44.484000,1.00271800,.00019747,0.0475,257.6339,138.0487,93.6666,0,U,64784,999,357,0,-.42E-6,0
SHIYAN-29,2025-196A,2026-07-13T14:17:02.359680,1.00276730,.0013367,28.8495,18.2022,177.9193,44.8968,0,U,65486,999,314,0,-.285E-5,0
NUSANTARA LIMA (NUSANTARA 5),2025-205A,2026-07-14T13:57:11.471328,1.00268841,.00003246,0.0129,103.0807,106.0959,45.3967,0,U,65588,999,299,0,-.365E-5,0
TJS-20,2025-238A,2026-07-14T15:10:25.503168,1.00274625,.00042875,5.4094,299.4447,182.1446,100.9619,0,U,66142,999,260,0,.22E-6,0
CMS-03 (GSAT-7R),2025-249B,2026-07-14T13:46:05.037024,1.00271242,.00014595,0.0240,286.6445,152.9510,133.3289,0,U,66311,999,262,0,-.84E-6,0
VIASAT-3 F2,2025-261A,2026-07-14T07:54:32.066784,1.00270448,.00007495,0.0014,307.9780,275.9845,107.8920,0,U,66454,999,306,0,-.24E-5,0
SHIJIAN-28 (SJ-28),2025-277A,2026-07-14T14:50:01.025952,1.00267129,.000117,4.4690,271.6973,22.5244,337.5657,0,U,66549,999,242,0,-.364E-5,0
TJS-22,2025-290A,2026-07-12T19:22:52.255200,1.00269739,.0002691,1.4677,286.9097,318.9700,42.0235,0,U,66990,999,228,0,-.5E-7,0
TJS-23,2025-306A,2026-07-14T12:38:32.556480,1.00275384,.00050268,5.5269,297.3431,194.3390,165.9025,0,U,67226,999,216,0,.16E-6,0
FENGYUN 4C,2025-312A,2026-07-13T15:48:28.031328,1.00269440,.00006584,0.0385,175.3203,48.7481,77.5697,0,U,67246,999,204,0,-.328E-5,0
SHIJIAN-29A (SJ-29A),2025-315A,2026-07-14T14:52:55.014816,1.00272360,.00048703,3.4655,94.4505,52.5068,81.9068,0,U,67302,999,189,0,-.78E-6,0
SHIJIAN-29B (SJ-29B),2025-315C,2026-07-14T14:52:55.013088,1.00272646,.0004987,3.4645,94.4432,54.2548,80.2132,0,U,67403,999,196,0,-.79E-6,0
ELEKTRO-L 5,2026-028A,2026-07-13T23:28:15.513312,1.00271936,.00020659,0.2090,324.1006,175.9654,219.9345,0,U,67756,999,152,0,-.103E-5,0
JAM-E JAM 1,2026-028B,2026-07-14T13:34:43.430880,1.00273497,.00017128,0.2078,312.6225,320.8292,256.6751,0,U,67757,999,139,0,.148E-5,0
ECHOSTAR 25,2026-045A,2026-07-14T11:40:38.762400,1.00277458,.00021576,0.0242,64.7404,51.3190,241.4710,0,U,68126,999,126,0,0,0
TJS-24,2026-116A,2026-07-14T14:30:59.040000,1.00269910,.00003733,0.0761,94.9953,126.9028,18.6042,0,U,69235,999,50,0,-.239E-5,0
